[{"OBJECT_NAME":"KHAYYAM","OBJECT_ID":"2022-096A","EPOCH":"2026-03-09T23:16:46.350624","MEAN_MOTION":15.24771015,"ECCENTRICITY":0.00024081,"INCLINATION":97.351,"RA_OF_ASC_NODE":334.9969,"ARG_OF_PERICENTER":70.558,"MEAN_ANOMALY":289.5917,"EPHEMERIS_TYPE":0,"CLASSIFICATION_TYPE":"U","NORAD_CAT_ID":53370,"ELEMENT_SET_NO":999,"REV_AT_EPOCH":19946,"BSTAR":0.00026923471,"MEAN_MOTION_DOT":6.603e-5,"MEAN_MOTION_DDOT":0},{"OBJECT_NAME":"TRANSPORTER-15 OBJECT D","OBJECT_ID":"2025-276D","EPOCH":"2026-03-09T22:32:09.904128","MEAN_MOTION":15.22139186,"ECCENTRICITY":0.00067442,"INCLINATION":97.4144,"RA_OF_ASC_NODE":144.1989,"ARG_OF_PERICENTER":10.0477,"MEAN_ANOMALY":350.0893,"EPHEMERIS_TYPE":0,"CLASSIFICATION_TYPE":"U","NORAD_CAT_ID":66669,"ELEMENT_SET_NO":999,"REV_AT_EPOCH":1536,"BSTAR":0.0013516428,"MEAN_MOTION_DOT":0.00031039,"MEAN_MOTION_DDOT":0}]
